NORAD_CAT_ID,OBJECT_NAME,OBJECT_TYPE,EPOCH,MEAN_MOTION,ECCENTRICITY,INCLINATION,RA_OF_ASC_NODE,ARG_OF_PERICENTER,MEAN_ANOMALY,BSTAR,MEAN_MOTION_DOT,MEAN_MOTION_DDOT,TLE_LINE0,TLE_LINE1,TLE_LINE2,SEMIMAJOR_AXIS,PERIOD,APOGEE,PERIGEE,DECAYED
54777.0,STARLINK-5468,PAYLOAD,2023-02-02 14:00:01,15.08802334,0.0001456,53.214,81.6489,75.3825,271.0859,0.0026607,0.00042268,0.0,0 STARLINK-5468,1 54777U 22175V   23033.58334491  .00042268  00000-0  26607-2 0  9990,2 54777  53.2140  81.6489 0001456  75.3825 271.0859 15.08802334  1309,6917.996,95.44,540.868,538.853,0.0
54777.0,STARLINK-5468,PAYLOAD,2023-02-03 06:00:00,15.0884101,0.0001392,53.2142,78.6548,87.3738,282.2163,-0.00082358,-0.00013372,0.0,0 STARLINK-5468,1 54777U 22175V   23034.25001157 -.00013372  00000-0 -82358-3 0  9997,2 54777  53.2142  78.6548 0001392  87.3738 282.2163 15.08841010  7108,6917.877,95.437,540.705,538.779,0.0
54777.0,STARLINK-5468,PAYLOAD,2023-02-03 14:00:01,15.08816777,0.000139,53.2141,77.1595,78.557,302.6301,0.0034679,0.00055302,0.0,0 STARLINK-5468,1 54777U 22175V   23034.58334491  .00055302  00000-0  34679-2 0  9992,2 54777  53.2141  77.1595 0001390  78.5570 302.6301 15.08816777  1306,6917.951,95.439,540.778,538.855,0.0
54777.0,STARLINK-5468,PAYLOAD,2023-02-03 22:00:00,15.08828167,0.0001347,53.2144,75.6612,87.9616,304.8211,0.0027109,0.00043106,0.0,0 STARLINK-5468,1 54777U 22175V   23034.91667824  .00043106  00000-0  27109-2 0  9997,2 54777  53.2144  75.6612 0001347  87.9616 304.8211 15.08828167  7204,6917.917,95.438,540.713,538.85,0.0
54777.0,STARLINK-5468,PAYLOAD,2023-02-04 00:00:00,15.08827644,0.0001348,53.2142,75.2868,88.6862,36.9965,0.0035279,0.00056288,0.0,0 STARLINK-5468,1 54777U 22175V   23035.00001157  .00056288  00000-0  35279-2 0  9991,2 54777  53.2142  75.2868 0001348  88.6862  36.9965 15.08827644  1306,6917.918,95.438,540.716,538.851,0.0
54777.0,STARLINK-5468,PAYLOAD,2023-02-04 14:00:01,15.08807476,0.0001157,53.2144,72.6698,73.0322,342.9952,0.0018303,0.00028935,0.0,0 STARLINK-5468,1 54777U 22175V   23035.58334491  .00028935  00000-0  18303-2 0  9991,2 54777  53.2144  72.6698 0001157  73.0322 342.9952 15.08807476  7300,6917.98,95.44,540.645,539.044,0.0
54777.0,STARLINK-5468,PAYLOAD,2023-02-04 22:00:00,15.08801353,0.0001076,53.2146,71.1715,84.3007,343.3014,0.003337,0.00053165,0.0,0 STARLINK-5468,1 54777U 22175V   23035.91667824  .00053165  00000-0  33370-2 0  9991,2 54777  53.2146  71.1715 0001076  84.3007 343.3014 15.08801353  1307,6917.999,95.44,540.608,539.119,0.0
54777.0,STARLINK-5468,PAYLOAD,2023-02-05 02:28:17,15.08831963,0.0001486,53.2147,70.3352,89.8632,270.2531,7.1086e-05,8.43e-06,0.0,0 STARLINK-5468,1 54777U 22175V   23036.10298555  .00000843  00000-0  71086-4 0  9997,2 54777  53.2147  70.3352 0001486  89.8632 270.2531 15.08831963  7381,6917.905,95.438,540.798,538.742,0.0
54777.0,STARLINK-5468,PAYLOAD,2023-02-05 08:49:50,15.08831079,0.0001253,53.2157,69.1461,89.1092,271.0044,5.7057e-05,6.2e-06,0.0,0 STARLINK-5468,1 54777U 22175V   23036.36794600  .00000620  00000-0  57057-4 0  9992,2 54777  53.2157  69.1461 0001253  89.1092 271.0044 15.08831079  9584,6917.908,95.438,540.639,538.906,0.0
54777.0,STARLINK-5468,PAYLOAD,2023-02-06 02:19:04,15.08857872,0.0001693,53.2166,65.8742,108.251,251.8667,-0.00024775,-4.231e-05,0.0,0 STARLINK-5468,1 54777U 22175V   23037.09658274 -.00004231  00000-0 -24775-3 0  9993,2 54777  53.2166  65.8742 0001693 108.2510 251.8667 15.08857872  7534,6917.826,95.436,540.862,538.52,0.0
54777.0,STARLINK-5468,PAYLOAD,2023-02-06 08:40:36,15.08850855,0.0001353,53.217,64.6851,100.9474,259.167,-3.5647e-05,-8.55e-06,0.0,0 STARLINK-5468,1 54777U 22175V   23037.36153661 -.00000855  00000-0 -35647-4 0  9992,2 54777  53.2170  64.6851 0001353 100.9474 259.1670 15.08850855  9731,6917.847,95.437,540.648,538.776,0.0
54777.0,STARLINK-5468,PAYLOAD,2023-02-06 18:12:55,15.08850851,0.0001898,53.2166,62.9012,145.4709,214.6407,-0.00012673,-2.305e-05,0.0,0 STARLINK-5468,1 54777U 22175V   23037.75897528 -.00002305  00000-0 -12673-3 0  9997,2 54777  53.2166  62.9012 0001898 145.4709 214.6407 15.08850851  9791,6917.847,95.437,541.025,538.399,0.0
54777.0,STARLINK-5468,PAYLOAD,2023-02-07 02:09:51,15.08846151,0.0001571,53.2166,61.4142,107.6926,252.4237,-8.0648e-05,-1.572e-05,0.0,0 STARLINK-5468,1 54777U 22175V   23038.09018089 -.00001572  00000-0 -80648-4 0  9995,2 54777  53.2166  61.4142 0001571 107.6926 252.4237 15.08846151  7683,6917.862,95.437,540.813,538.64,0.0
54777.0,STARLINK-5468,PAYLOAD,2023-02-07 11:42:09,15.08844757,0.0001319,53.2173,59.6286,91.6555,268.4588,9.4931e-05,1.223e-05,0.0,0 STARLINK-5468,1 54777U 22175V   23038.48761422  .00001223  00000-0  94931-4 0  9995,2 54777  53.2173  59.6286 0001319  91.6555 268.4588 15.08844757  9902,6917.866,95.437,540.643,538.818,0.0
54777.0,STARLINK-5468,PAYLOAD,2023-02-08 11:32:57,15.08841838,0.0001282,53.2162,55.1672,98.7051,261.4086,-3.4018e-05,-8.29e-06,0.0,0 STARLINK-5468,1 54777U 22175V   23039.48122115 -.00000829  00000-0 -34018-4 0  9999,2 54777  53.2162  55.1672 0001282  98.7051 261.4086 15.08841838  7897,6917.875,95.437,540.627,538.853,0.0
54777.0,STARLINK-5468,PAYLOAD,2023-02-09 01:51:26,15.08825319,0.000107,53.2165,52.489,84.4189,275.6925,1.6834e-07,-2.85e-06,0.0,0 STARLINK-5468,1 54777U 22175V   23040.07739192 -.00000285  00000-0  16834-6 0  9998,2 54777  53.2165  52.4890 0001070  84.4189 275.6925 15.08825319  7986,6917.925,95.438,540.53,539.05,0.0
54777.0,STARLINK-5468,PAYLOAD,2023-02-09 08:12:58,15.08842557,0.0001323,53.2173,51.2987,94.7459,265.3684,-3.3499e-05,-8.21e-06,0.0,0 STARLINK-5468,1 54777U 22175V   23040.34234411 -.00000821  00000-0 -33499-4 0  9993,2 54777  53.2173  51.2987 0001323  94.7459 265.3684 15.08842557 10181,6917.873,95.437,540.653,538.822,0.0
54777.0,STARLINK-5468,PAYLOAD,2023-02-09 17:45:17,15.08839366,0.0001509,53.2186,49.5174,99.1178,260.9985,-5.6184e-05,-1.182e-05,0.0,0 STARLINK-5468,1 54777U 22175V   23040.73978741 -.00001182  00000-0 -56184-4 0  9994,2 54777  53.2186  49.5174 0001509  99.1178 260.9985 15.08839366  8081,6917.882,95.438,540.791,538.703,0.0
54777.0,STARLINK-5468,PAYLOAD,2023-02-10 00:06:50,15.08828907,0.0001477,53.217,48.3321,87.0753,273.0408,4.1299e-06,-2.22e-06,0.0,0 STARLINK-5468,1 54777U 22175V   23041.00475428 -.00000222  00000-0  41299-5 0  9994,2 54777  53.2170  48.3321 0001477  87.0753 273.0408 15.08828907  8123,6917.914,95.438,540.801,538.758,0.0
54777.0,STARLINK-5468,PAYLOAD,2023-02-10 08:03:45,15.08848005,0.0001184,53.2171,46.8411,102.3117,257.8007,0.00011592,1.558e-05,0.0,0 STARLINK-5468,1 54777U 22175V   23041.33593815  .00001558  00000-0  11592-3 0  9994,2 54777  53.2171  46.8411 0001184 102.3117 257.8007 15.08848005  8178,6917.856,95.437,540.54,538.902,0.0
54777.0,STARLINK-5468,PAYLOAD,2023-02-11 06:19:09,15.08842082,0.0001211,53.218,42.6793,102.642,257.4708,3.0219e-05,1.93e-06,0.0,0 STARLINK-5468,1 54777U 22175V   23042.26330592  .00000193  00000-0  30219-4 0  9990,2 54777  53.2180  42.6793 0001211 102.6420 257.4708 15.08842082  8315,6917.874,95.437,540.577,538.901,0.0
54777.0,STARLINK-5468,PAYLOAD,2023-02-11 17:26:51,15.08840241,0.0001123,53.2173,40.5965,103.6622,256.4495,4.4388e-05,4.19e-06,0.0,0 STARLINK-5468,1 54777U 22175V   23042.72698512  .00000419  00000-0  44388-4 0  9993,2 54777  53.2173  40.5965 0001123 103.6622 256.4495 15.08840241 10547,6917.88,95.438,540.522,538.968,0.0
54777.0,STARLINK-5468,PAYLOAD,2023-02-11 23:48:24,15.08827504,9.85e-05,53.2175,39.4076,116.2639,243.8454,0.0001432,1.991e-05,0.0,0 STARLINK-5468,1 54777U 22175V   23042.99194900  .00001991  00000-0  14320-3 0  9992,2 54777  53.2175  39.4076 0000985 116.2639 243.8454 15.08827504  8428,6917.919,95.438,540.465,539.102,0.0
54777.0,STARLINK-5468,PAYLOAD,2023-02-12 09:20:42,15.08846339,0.0001458,53.2161,37.6235,97.913,262.2027,-1.1385e-05,-4.69e-06,0.0,0 STARLINK-5468,1 54777U 22175V   23043.38938460 -.00000469  00000-0 -11385-4 0  9993,2 54777  53.2161  37.6235 0001458  97.9130 262.2027 15.08846339  8481,6917.861,95.437,540.735,538.717,0.0
54777.0,STARLINK-5468,PAYLOAD,2023-02-12 23:39:12,15.08832987,0.0001109,53.2163,34.947,103.9449,256.1666,-7.7458e-05,-1.52e-05,0.0,0 STARLINK-5468,1 54777U 22175V   23043.98555600 -.00001520  00000-0 -77458-4 0  9992,2 54777  53.2163  34.9470 0001109 103.9449 256.1666 15.08832987  8573,6917.902,95.438,540.534,539.0,0.0
54777.0,STARLINK-5468,PAYLOAD,2023-02-13 09:11:30,15.08846374,0.0001251,53.2154,33.1629,101.1345,258.9788,-6.5988e-05,-1.338e-05,0.0,0 STARLINK-5468,1 54777U 22175V   23044.38298769 -.00001338  00000-0 -65988-4 0  9999,2 54777  53.2154  33.1629 0001251 101.1345 258.9788 15.08846374  8630,6917.861,95.437,540.591,538.86,0.0
54777.0,STARLINK-5468,PAYLOAD,2023-02-14 09:02:17,15.08839821,0.0001337,53.2175,28.7016,87.9995,272.1151,-1.6607e-05,-5.52e-06,0.0,0 STARLINK-5468,1 54777U 22175V   23045.37659240 -.00000552  00000-0 -16607-4 0  9995,2 54777  53.2175  28.7016 0001337  87.9995 272.1151 15.08839821  8787,6917.881,95.438,540.671,538.821,0.0
54777.0,STARLINK-5468,PAYLOAD,2023-02-14 15:23:51,15.08822052,0.0001495,53.217,27.5113,79.0577,281.0583,-0.00016506,-2.913e-05,0.0,0 STARLINK-5468,1 54777U 22175V   23045.64156908 -.00002913  00000-0 -16506-3 0  9998,2 54777  53.2170  27.5113 0001495  79.0577 281.0583 15.08822052  8821,6917.935,95.439,540.834,538.766,0.0
54777.0,STARLINK-5468,PAYLOAD,2023-02-15 05:42:19,15.08833744,0.0001337,53.2187,24.8375,104.0204,256.0937,3.9668e-05,3.43e-06,0.0,0 STARLINK-5468,1 54777U 22175V   23046.23772602  .00000343  00000-0  39668-4 0  9997,2 54777  53.2187  24.8375 0001337 104.0204 256.0937 15.08833744  8915,6917.9,95.438,540.689,538.84,0.0
54777.0,STARLINK-5468,PAYLOAD,2023-02-15 15:14:37,15.08845376,0.0001207,53.2181,23.0524,95.3879,264.7251,5.6936e-05,6.19e-06,0.0,0 STARLINK-5468,1 54777U 22175V   23046.63515817  .00000619  00000-0  56936-4 0  9997,2 54777  53.2181  23.0524 0001207  95.3879 264.7251 15.08845376  8977,6917.864,95.437,540.564,538.894,0.0
